[{"OBJECT_NAME":"STARLINK-1954","OBJECT_ID":"2021-009H","EPOCH":"2026-03-09T23:20:25.352160","MEAN_MOTION":15.30849174,"ECCENTRICITY":0.00046184,"INCLINATION":53.0574,"RA_OF_ASC_NODE":8.8654,"ARG_OF_PERICENTER":103.3293,"MEAN_ANOMALY":256.8222,"EPHEMERIS_TYPE":0,"CLASSIFICATION_TYPE":"U","NORAD_CAT_ID":47555,"ELEMENT_SET_NO":999,"REV_AT_EPOCH":28100,"BSTAR":0.0022371791,"MEAN_MOTION_DOT":0.00067883,"MEAN_MOTION_DDOT":0},{"OBJECT_NAME":"STARLINK-35193","OBJECT_ID":"2025-224H","EPOCH":"2026-03-09T01:21:57.257280","MEAN_MOTION":15.30213872,"ECCENTRICITY":0.00012146,"INCLINATION":53.1611,"RA_OF_ASC_NODE":14.5512,"ARG_OF_PERICENTER":120.2525,"MEAN_ANOMALY":239.8597,"EPHEMERIS_TYPE":0,"CLASSIFICATION_TYPE":"U","NORAD_CAT_ID":65889,"ELEMENT_SET_NO":999,"REV_AT_EPOCH":2475,"BSTAR":0.00084703262,"MEAN_MOTION_DOT":0.00024822,"MEAN_MOTION_DDOT":0}]
